[{"OBJECT_NAME":"STARLINK-34950","OBJECT_ID":"2025-175V","EPOCH":"2026-03-09T14:59:22.156800","MEAN_MOTION":15.0565737,"ECCENTRICITY":0.000252,"INCLINATION":97.6017,"RA_OF_ASC_NODE":302.6406,"ARG_OF_PERICENTER":74.5682,"MEAN_ANOMALY":285.5823,"EPHEMERIS_TYPE":0,"CLASSIFICATION_TYPE":"U","NORAD_CAT_ID":65193,"ELEMENT_SET_NO":999,"REV_AT_EPOCH":3260,"BSTAR":-4.3173e-5,"MEAN_MOTION_DOT":-6.84e-6,"MEAN_MOTION_DDOT":0},{"OBJECT_NAME":"CZ-6A DEB","OBJECT_ID":"2022-151EL","EPOCH":"2026-03-09T12:09:26.951616","MEAN_MOTION":14.86893831,"ECCENTRICITY":0.00944101,"INCLINATION":98.6325,"RA_OF_ASC_NODE":168.3306,"ARG_OF_PERICENTER":70.5159,"MEAN_ANOMALY":290.6224,"EPHEMERIS_TYPE":0,"CLASSIFICATION_TYPE":"U","NORAD_CAT_ID":54412,"ELEMENT_SET_NO":999,"REV_AT_EPOCH":17774,"BSTAR":0.0014840705,"MEAN_MOTION_DOT":0.00014338,"MEAN_MOTION_DDOT":0}]
